#dV2023  2  4 10  0  0.00000000    1682       CTS   FIT  GFZ
## 2247 554400.00000000    30.00000000 59979 0.4166666666667
+    1   L65  0  0  0  0  0  0  0  0  0  0  0  0  0  0  0  0
+          0  0  0  0  0  0  0  0  0  0  0  0  0  0  0  0  0
+          0  0  0  0  0  0  0  0  0  0  0  0  0  0  0  0  0
+          0  0  0  0  0  0  0  0  0  0  0  0  0  0  0  0  0
+          0  0  0  0  0  0  0  0  0  0  0  0  0  0  0  0  0
++         0  0  0  0  0  0  0  0  0  0  0  0  0  0  0  0  0
++         0  0  0  0  0  0  0  0  0  0  0  0  0  0  0  0  0
++         0  0  0  0  0  0  0  0  0  0  0  0  0  0  0  0  0
++         0  0  0  0  0  0  0  0  0  0  0  0  0  0  0  0  0
++         0  0  0  0  0  0  0  0  0  0  0  0  0  0  0  0  0
%c L  cc GPS ccc cccc cccc cccc cccc ccccc ccccc ccccc ccccc
%c cc cc ccc ccc cccc cccc cccc cccc ccccc ccccc ccccc ccccc
%f  0.0000000  0.000000000  0.00000000000  0.000000000000000
%f  0.0000000  0.000000000  0.00000000000  0.000000000000000
%i    0    0    0    0      0      0      0      0         0
%i    0    0    0    0      0      0      0      0         0
/* CCCCCCCCCCCCCCCCCCCCCCCCCCCCCCCCCCCCCCCCCCCCCCCCCCCCCCCCCCCCCCCCCCCCCCCCCCCCC
/* C                             GFZ RSO-ORBIT                                 C
/* C DOI: https://doi.org/10.5880/GFZ_ORBIT/RSO/L65_G_v02                      C
/* C                                                                           C
/* C DORIS        RMS: not applicable                                          C
/* C GNSS-E Code  RMS: not applicable                                          C
/* C GNSS-E Phase RMS: not applicable                                          C
/* C GNSS-G Code  RMS:  48.908 [cm]   Obs.acc.:     14129 Obs.eli.:      1107  C
/* C GNSS-G Phase RMS:   4.108 [mm]   Obs.acc.:     14129 Obs.eli.:      1107  C
/* C SLR          RMS:   1.318 [cm]   Obs.acc.:        42 Obs.eli.:         0  C
/* C                                                                           C
/* CCCCCCCCCCCCCCCCCCCCCCCCCCCCCCCCCCCCCCCCCCCCCCCCCCCCCCCCCCCCCCCCCCCCCCCCCCCCC
*  2023  2  4 14 15  0.00000000
PL65   6422.709932   2221.566035   1072.162537   1219.725474
VL65 -10141.283789  -7319.525534  75124.782658 999999.999999
*  2023  2  4 14 15 30.00000000
PL65   6388.715831   2198.463538   1296.902528   1220.194383
VL65 -12519.964769  -8079.006311  74688.061911 999999.999999
*  2023  2  4 14 16  0.00000000
PL65   6347.600412   2173.111189   1520.208264   1220.663064
VL65 -14888.377227  -8819.296179  74168.699167 999999.999999
*  2023  2  4 14 16 30.00000000
PL65   6299.398544   2145.567723   1741.832643   1221.131659
VL65 -17243.813573  -9539.625362  73567.259707 999999.999999
*  2023  2  4 14 17  0.00000000
PL65   6244.153203   2115.894134   1961.530401   1221.600308
VL65 -19583.577593 -10239.258986  72884.402342 999999.999999
*  2023  2  4 14 17 30.00000000
PL65   6181.915431   2084.153565   2179.058387   1222.069023
VL65 -21904.989172 -10917.497950  72120.877534 999999.999999
*  2023  2  4 14 18  0.00000000
PL65   6112.744283   2050.411206   2394.175835   1222.537843
VL65 -24205.386769 -11573.678282  71277.524301 999999.999999
*  2023  2  4 14 18 30.00000000
PL65   6036.706769   2014.734185   2606.644629   1223.006699
VL65 -26482.127374 -12207.170077  70355.270167 999999.999999
*  2023  2  4 14 19  0.00000000
PL65   5953.877798   1977.191470   2816.229571   1223.475529
VL65 -28732.589898 -12817.379005  69355.133842 999999.999999
*  2023  2  4 14 19 30.00000000
PL65   5864.340101   1937.853751   3022.698655   1223.944432
VL65 -30954.181852 -13403.749047  68278.223720 999999.999999
*  2023  2  4 14 20  0.00000000
PL65   5768.184139   1896.793332   3225.823330   1224.413409
VL65 -33144.342829 -13965.763089  67125.733715 999999.999999
*  2023  2  4 14 20 30.00000000
PL65   5665.508003   1854.084009   3425.378752   1224.882340
VL65 -35300.546181 -14502.942548  65898.941634 999999.999999
*  2023  2  4 14 21  0.00000000
PL65   5556.417310   1809.800953   3621.144036   1225.351284
VL65 -37420.301949 -15014.847931  64599.208462 999999.999999
*  2023  2  4 14 21 30.00000000
PL65   5441.025090   1764.020596   3812.902502   1225.820248
VL65 -39501.160536 -15501.079626  63227.976796 999999.999999
*  2023  2  4 14 22  0.00000000
PL65   5319.451651   1716.820510   4000.441917   1226.289200
VL65 -41540.716837 -15961.277227  61786.767953 999999.999999
*  2023  2  4 14 22 30.00000000
PL65   5191.824451   1668.279290   4183.554726   1226.758223
VL65 -43536.612805 -16395.118570  60277.177653 999999.999999
*  2023  2  4 14 23  0.00000000
PL65   5058.277948   1618.476440   4362.038267   1227.227202
VL65 -45486.536867 -16802.320180  58700.873212 999999.999999
*  2023  2  4 14 23 30.00000000
PL65   4918.953469   1567.492255   4535.694989   1227.696066
VL65 -47388.223413 -17182.637784  57059.595198 999999.999999
*  2023  2  4 14 24  0.00000000
PL65   4773.999062   1515.407703   4704.332678   1228.165076
VL65 -49239.457240 -17535.867381  55355.159836 999999.999999
*  2023  2  4 14 24 30.00000000
PL65   4623.569338   1462.304302   4867.764677   1228.634080
VL65 -51038.079948 -17861.846536  53589.455946 999999.999999
*  2023  2  4 14 25  0.00000000
PL65   4467.825294   1408.263997   5025.810099   1229.103049
VL65 -52781.992949 -18160.453139  51764.439620 999999.999999
*  2023  2  4 14 25 30.00000000
PL65   4306.934130   1353.369041   5178.294021   1229.571955
VL65 -54469.158993 -18431.603455  49882.131442 999999.999999
*  2023  2  4 14 26  0.00000000
PL65   4141.069063   1297.701879   5325.047678   1230.040758
VL65 -56097.604467 -18675.252158  47944.615132 999999.999999
*  2023  2  4 14 26 30.00000000
PL65   3970.409132   1241.345037   5465.908646   1230.509669
VL65 -57665.423101 -18891.393263  45954.034889 999999.999999
*  2023  2  4 14 27  0.00000000
PL65   3795.138990   1184.380995   5600.721021   1230.978698
VL65 -59170.778141 -19080.060302  43912.590067 999999.999999
*  2023  2  4 14 27 30.00000000
PL65   3615.448697   1126.892078   5729.335572   1231.447758
VL65 -60611.901560 -19241.325320  41822.532000 999999.999999
*  2023  2  4 14 28  0.00000000
PL65   3431.533513   1068.960337   5851.609901   1231.916826
VL65 -61987.095367 -19375.297781  39686.163602 999999.999999
*  2023  2  4 14 28 30.00000000
PL65   3243.593682   1010.667439   5967.408593   1232.385804
VL65 -63294.734550 -19482.123998  37505.836634 999999.999999
*  2023  2  4 14 29  0.00000000
PL65   3051.834214    952.094558   6076.603358   1232.854853
VL65 -64533.267825 -19561.986214  35283.948683 999999.999999
*  2023  2  4 14 29 30.00000000
PL65   2856.464660    893.322269   6179.073165   1233.324238
VL65 -65701.218876 -19615.101915  33022.942103 999999.999999
*  2023  2  4 14 30  0.00000000
PL65   2657.698885    834.430441   6274.704376   1233.793577
VL65 -66797.188629 -19641.724002  30725.301921 999999.999999
*  2023  2  4 14 30 30.00000000
PL65   2455.754832    775.498132   6363.390867   1234.262787
VL65 -67819.856566 -19642.140737  28393.552815 999999.999999
*  2023  2  4 14 31  0.00000000
PL65   2250.854290    716.603481   6445.034145   1234.731606
VL65 -68767.982034 -19616.674963  26030.256884 999999.999999
*  2023  2  4 14 31 30.00000000
PL65   2043.222644    657.823609   6519.543457   1235.200317
VL65 -69640.406661 -19565.682823  23638.011361 999999.999999
*  2023  2  4 14 32  0.00000000
PL65   1833.088628    599.234523   6586.835891   1235.668996
VL65 -70436.056604 -19489.552311  21219.445210 999999.999999
*  2023  2  4 14 32 30.00000000
PL65   1620.684070    540.911016   6646.836464   1236.137912
VL65 -71153.943374 -19388.702452  18777.215765 999999.999999
*  2023  2  4 14 33  0.00000000
PL65   1406.243636    482.926579   6699.478205   1236.606953
VL65 -71793.164697 -19263.583274  16314.005995 999999.999999
*  2023  2  4 14 33 30.00000000
PL65   1190.004566    425.353306   6744.702224   1237.075977
VL65 -72352.905281 -19114.675294  13832.521110 999999.999999
*  2023  2  4 14 34  0.00000000
PL65    972.206416    368.261807   6782.457781   1237.545019
VL65 -72832.436802 -18942.488332  11335.486082 999999.999999
*  2023  2  4 14 34 30.00000000
PL65    753.090797    311.721117   6812.702333   1238.014059
VL65 -73231.119115 -18747.560954   8825.643624 999999.999999
*  2023  2  4 14 35  0.00000000
PL65    532.901104    255.798616   6835.401592   1238.483301
VL65 -73548.401567 -18530.459418   6305.750658 999999.999999
*  2023  2  4 14 35 30.00000000
PL65    311.882252    200.559944   6850.529555   1238.952599
VL65 -73783.823271 -18291.775982   3778.575649 999999.999999
*  2023  2  4 14 36  0.00000000
PL65     90.280399    146.068925   6858.068541   1239.421667
VL65 -73937.014128 -18032.128274   1246.896338 999999.999999
*  2023  2  4 14 36 30.00000000
PL65   -131.657321     92.387497   6858.009212   1239.891029
VL65 -74007.695662 -17752.158424  -1286.504007 999999.999999
*  2023  2  4 14 37  0.00000000
PL65   -353.683076     39.575633   6850.350581   1240.360132
VL65 -73995.680751 -17452.531196  -3818.839838 999999.999999
*  2023  2  4 14 37 30.00000000
PL65   -575.548610    -12.308718   6835.100023   1240.829372
VL65 -73900.873548 -17133.932669  -6347.325103 999999.999999
*  2023  2  4 14 38  0.00000000
PL65   -797.005518    -63.209698   6812.273266   1241.298493
VL65 -73723.270594 -16797.069626  -8869.175221 999999.999999
*  2023  2  4 14 38 30.00000000
PL65  -1017.805525   -113.073598   6781.894387   1241.767654
VL65 -73462.961817 -16442.668922 -11381.610964 999999.999999
*  2023  2  4 14 39  0.00000000
PL65  -1237.700762   -161.848919   6743.995785   1242.236895
VL65 -73120.129472 -16071.476399 -13881.862492 999999.999999
*  2023  2  4 14 39 30.00000000
PL65  -1456.444048   -209.486427   6698.618155   1242.706206
VL65 -72695.047080 -15684.255320 -16367.171035 999999.999999
*  2023  2  4 14 40  0.00000000
PL65  -1673.789158   -255.939201   6645.810448   1243.175298
VL65 -72188.080554 -15281.784979 -18834.790629 999999.999999
EOF
